STARLINK-1723           
1 46333U 20062J   22349.09215230 -.00001974  00000+0 -11366-3 0  9993
2 46333  53.0548 276.5295 0002135  61.6617 298.4587 15.06382687126547
STARLINK-1725           
1 46334U 20062K   22349.09402023 -.00000201  00000+0  53846-5 0  9994
2 46334  53.0559 256.8064 0001412  65.3495 294.7640 15.06398592126829
STARLINK-1727           
1 46335U 20062L   22349.05528277  .00000687  00000+0  65057-4 0  9994
2 46335  53.0540 276.7054 0001667  48.3585 311.7546 15.06394975126548
STARLINK-1738           
1 46336U 20062M   22349.11241545 -.00000324  00000+0 -28603-5 0  9999
2 46336  53.0558 256.4332 0001668  57.8862 302.2288 15.06393462126836
STARLINK-1750           
1 46337U 20062N   22349.12714994  .00001204  00000+0  99700-4 0  9995
2 46337  53.0548 256.3804 0001099  54.9227 305.1865 15.06398087126831
STARLINK-1752           
1 46338U 20062P   22348.31440628 -.00000314  00000+0 -21966-5 0  9999
2 46338  53.0538 280.0304 0001575  58.9073 301.2071 15.06396984126247
STARLINK-1759           
1 46340U 20062R   22349.28380460  .00002587  00000+0  19249-3 0  9997
2 46340  53.0552 275.6889 0001515  65.9193 294.1954 15.06402893126572
STARLINK-1760           
1 46341U 20062S   22349.22298843 -.00004601  00000+0 -29004-3 0  9996
2 46341  53.0551 255.9501 0001840  53.3418 306.7740 15.06412533126852
STARLINK-1762           
1 46342U 20062T   22349.07002406  .00001876  00000+0  14481-3 0  9990
2 46342  53.0526 276.6403 0001331  53.8635 306.2477 15.06398862126543
STARLINK-1764           
1 46343U 20062U   22349.13084468 -.00002981  00000+0 -18134-3 0  9995
2 46343  53.0529 256.3551 0001861  73.0042 287.1151 15.06388050126836
STARLINK-1765           
1 46344U 20062V   22349.08292493 -.00000237  00000+0  30031-5 0  9992
2 46344  53.0529 256.5809 0001577  80.4353 279.6814 15.06398313126808
STARLINK-1767           
1 46345U 20062W   22349.08382608 -.00001034  00000+0 -50507-4 0  9997
2 46345  53.0561 276.5608 0001579  64.3386 295.7766 15.06393896126540
STARLINK-1546           
1 46346U 20062X   22348.57551497  .00022768  00000+0  65218-3 0  9994
2 46346  53.0600  86.8837 0005201   0.4222 359.6784 15.35840780129181
STARLINK-1547           
1 46347U 20062Y   22349.37457542  .00000000  00000+0  18905-4 0  9997
2 46347  53.0547 230.2684 0001750  54.2885 305.8267 15.06395930127215
STARLINK-1553           
1 46348U 20062Z   22349.02026515  .00000006  00000+0  19331-4 0  9992
2 46348  53.0559 256.8509 0001784  89.5869 270.5325 15.06396654126811
STARLINK-1575           
1 46349U 20062AA  22349.08338886 -.00000891  00000+0 -40911-4 0  9998
2 46349  53.0543 231.5689 0001566  56.0528 304.0610 15.06402598127178
STARLINK-1617           
1 46350U 20062AB  22349.31329203  .00001713  00000+0  13387-3 0  9997
2 46350  53.0545 275.5382 0001672  65.2853 294.8310 15.06399766126580
STARLINK-1646           
1 46351U 20062AC  22349.45057822  .00000883  00000+0  78180-4 0  9998
2 46351  53.0553 254.8995 0001519  66.4792 293.6356 15.06390743126881
STARLINK-1653           
1 46352U 20062AD  22349.43308313  .00003036  00000+0  22260-3 0  9991
2 46352  53.0530 255.0059 0001498  70.6924 289.4227 15.06404474126888
STARLINK-1656           
1 46353U 20062AE  22349.09951248  .00000714  00000+0  66805-4 0  9999
2 46353  53.0546 276.5024 0001540  66.6921 293.4230 15.06397397126543
STARLINK-1657           
1 46354U 20062AF  22349.08845614  .00000112  00000+0  26399-4 0  9994
2 46354  53.0582 276.5479 0001861  60.4580 299.6595 15.06394657126545
STARLINK-1661           
1 46355U 20062AG  22348.53187296  .00001000  00000+0  86000-4 0  9991
2 46355  53.0559 279.0516 0001640  69.1226 290.9938 15.06401501126461
STARLINK-1665           
1 46356U 20062AH  22349.27180206  .00002431  00000+0  18200-3 0  9993
2 46356  53.0549 275.7224 0001568  82.0319 278.0848 15.06402438126575
STARLINK-1666           
1 46357U 20062AJ  22349.13822503  .00003255  00000+0  23737-3 0  9998
2 46357  53.0515 256.3217 0001340 104.6346 255.4791 15.06389444126831
STARLINK-1690           
1 46358U 20062AK  22349.18429501  .00001267  00000+0  10397-3 0  9994
2 46358  53.0563 276.1243 0001734  63.9321 296.1847 15.06387183126563
STARLINK-1707           
1 46359U 20062AL  22348.96543576  .00000970  00000+0  84055-4 0  9992
2 46359  53.0542 232.1042 0001636  65.1496 294.9663 15.06394618127157
STARLINK-1713           
1 46360U 20062AM  22349.12024901  .00000457  00000+0  49591-4 0  9995
2 46360  53.0533 231.4083 0002238  44.5281 315.5887 15.06400789127186
STARLINK-1722           
1 46361U 20062AN  22349.08981781 -.00001085  00000+0 -53953-4 0  9996
2 46361  53.0545 231.5220 0001363  76.9509 283.1632 15.06386888127163
STARLINK-1726           
1 46362U 20062AP  22348.93594669  .00004806  00000+0  34127-3 0  9998
2 46362  53.0534 232.2394 0001840  61.0121 299.1052 15.06405687127158
STARLINK-1739           
1 46363U 20062AQ  22348.39685766  .00001671  00000+0  13106-3 0  9999
2 46363  53.0542 234.6316 0001378  70.4330 289.6807 15.06393566127042
STARLINK-1763           
1 46364U 20062AR  22348.73144754  .00002003  00000+0  15334-3 0  9990
2 46364  53.0536 213.6476 0001445  78.6186 281.4966 15.06400083127212
STARLINK-1550           
1 46365U 20062AS  22349.37089483 -.00000196  00000+0  57678-5 0  9990
2 46365  53.0554 230.2799 0001790  59.2106 300.9059 15.06392939127193
STARLINK-1651           
1 46366U 20062AT  22348.82905211  .00001731  00000+0  13509-3 0  9994
2 46366  53.0551 232.7205 0001672  73.6818 286.4355 15.06405034126950
STARLINK-1658           
1 46368U 20062AV  22349.02668877 -.00000043  00000+0  16044-4 0  9997
2 46368  53.0548 256.8006 0001657  76.8550 283.2624 15.06400139126826
STARLINK-1670           
1 46370U 20062AX  22349.12347182  .00000523  00000+0  54045-4 0  9999
2 46370  53.0545 256.3840 0001684  55.5127 304.6021 15.06397223126830
STARLINK-1688           
1 46371U 20062AY  22349.04975162 -.00000363  00000+0 -54909-5 0  9990
2 46371  53.0549 256.7314 0001426  71.9456 288.1689 15.06393151126827
STARLINK-1689           
1 46372U 20062AZ  22348.99261436  .00001342  00000+0  10896-3 0  9997
2 46372  53.0561 276.9726 0001541  59.0363 301.0777 15.06403354126533
STARLINK-1711           
1 46374U 20062BB  22348.87099972  .00010293  00000+0  69891-3 0  9994
2 46374  53.0520 207.4903 0001995  98.3615 261.7600 15.06927572127312
STARLINK-1724           
1 46375U 20062BC  22349.08705926  .00001063  00000+0  90250-4 0  9991
2 46375  53.0548 231.5408 0001727  61.8801 298.2362 15.06403603127174
STARLINK-1742           
1 46376U 20062BD  22349.10182170 -.00000312  00000+0 -20730-5 0  9990
2 46376  53.0533 231.4919 0001538  74.8386 285.2773 15.06389972127171
STARLINK-1758           
1 46380U 20062BH  22349.13452795  .00004083  00000+0  29298-3 0  9994
2 46380  53.0558 256.3450 0002398  56.7740 303.3479 15.06382367126835
STARLINK-1769           
1 46382U 20062BK  22349.38195598 -.00000576  00000+0 -19749-4 0  9994
2 46382  53.0529 230.2366 0001949  53.5139 306.6029 15.06394187127190
STARLINK-1770           
1 46383U 20062BL  22349.23590942  .00007236  00000+0  50481-3 0  9996
2 46383  53.0556 275.8936 0001912  56.3072 303.8099 15.06350589126560
STARLINK-1771           
1 46384U 20062BM  22349.23957412  .00008027  00000+0  55727-3 0  9993
2 46384  53.0526 275.8591 0001478  56.3488 303.7642 15.06392050126565
STARLINK-1644           
1 46532U 20070A   22349.50495818  .00001841  00000+0  14249-3 0  9995
2 46532  53.0550  74.6826 0001970  33.5812 326.5301 15.06398173121649
STARLINK-1648           
1 46533U 20070B   22348.52081411 -.00000084  00000+0  13248-4 0  9995
2 46533  53.0559  79.0872 0001765  46.5695 313.5440 15.06396743121498
STARLINK-1659           
1 46534U 20070C   22348.83412078  .00000720  00000+0  67224-4 0  9996
2 46534  53.0539  77.6910 0001976  38.2684 321.8445 15.06398736121529
STARLINK-1663           
1 46535U 20070D   22349.55287436  .00001097  00000+0  92561-4 0  9995
2 46535  53.0546  74.4679 0001894  46.9768 313.1379 15.06401671121649
STARLINK-1672           
1 46537U 20070F   22348.98155928  .00000625  00000+0  60851-4 0  9996
2 46537  53.0567  77.0339 0001666  49.5840 310.5294 15.06393074121254
STARLINK-1678           
1 46538U 20070G   22348.95944329  .00000305  00000+0  39377-4 0  9999
2 46538  53.0551  77.1266 0001693  59.0612 301.0544 15.06396588121246
STARLINK-1687           
1 46541U 20070K   22348.54108536 -.00000221  00000+0  40640-5 0  9994
2 46541  53.0539  59.0056 0001447  71.3840 288.7306 15.06396606121753
STARLINK-1692           
1 46542U 20070L   22348.94101626  .00000563  00000+0  56680-4 0  9990
2 46542  53.0565  77.2192 0001926  48.3136 311.8017 15.06392713121550
STARLINK-1693           
1 46543U 20070M   22348.72722937 -.00000282  00000+0 -69910-8 0  9995
2 46543  53.0534  78.1747 0001832  64.5410 295.5769 15.06395390121527
STARLINK-1694           
1 46544U 20070N   22348.92212500  .00000141  00000+0  28344-4 0  9992
2 46544  53.0545  62.3026 0001640  60.3629 299.7523 15.06395786121756
STARLINK-1696           
1 46545U 20070P   22349.29486165 -.00000010  00000+0  18258-4 0  9993
2 46545  53.0541  75.6166 0001762  49.6933 310.4210 15.06395160121590
STARLINK-1697           
1 46546U 20070Q   22349.54550387  .00001110  00000+0  93387-4 0  9997
2 46546  53.0554  74.5044 0001313  75.2250 284.8884 15.06404862121330
STARLINK-1698           
1 46547U 20070R   22348.77788905  .00000423  00000+0  47334-4 0  9998
2 46547  53.0570  77.9411 0002192  41.8357 318.2799 15.06393750121517
STARLINK-1699           
1 46548U 20070S   22348.72354161  .00004205  00000+0  30116-3 0  9998
2 46548  53.0554  78.1943 0001956  32.9972 327.1139 15.06381701121525
STARLINK-1700           
1 46549U 20070T   22349.21746147  .00000432  00000+0  47939-4 0  9993
2 46549  53.0553  75.9768 0001512  66.7873 293.3275 15.06391603121288
STARLINK-1701           
1 46550U 20070U   22349.26906214  .00000828  00000+0  74518-4 0  9995
2 46550  53.0539  75.7376 0002009  40.5227 319.5912 15.06396676121602
